[{"OBJECT_NAME":"JY1SAT (JO-97)","OBJECT_ID":"2018-099AX","EPOCH":"2026-03-09T16:28:19.890048","MEAN_MOTION":15.30302629,"ECCENTRICITY":0.00047232,"INCLINATION":97.4249,"RA_OF_ASC_NODE":131.3625,"ARG_OF_PERICENTER":256.6795,"MEAN_ANOMALY":103.3919,"EPHEMERIS_TYPE":0,"CLASSIFICATION_TYPE":"U","NORAD_CAT_ID":43803,"ELEMENT_SET_NO":999,"REV_AT_EPOCH":39839,"BSTAR":0.00060804308,"MEAN_MOTION_DOT":0.00017774,"MEAN_MOTION_DDOT":0},{"OBJECT_NAME":"STARLINK-35235","OBJECT_ID":"2025-212G","EPOCH":"2026-03-09T22:04:07.841280","MEAN_MOTION":15.30230381,"ECCENTRICITY":9.637e-5,"INCLINATION":53.1584,"RA_OF_ASC_NODE":344.2593,"ARG_OF_PERICENTER":103.3884,"MEAN_ANOMALY":256.7225,"EPHEMERIS_TYPE":0,"CLASSIFICATION_TYPE":"U","NORAD_CAT_ID":65682,"ELEMENT_SET_NO":999,"REV_AT_EPOCH":2723,"BSTAR":0.0015299434,"MEAN_MOTION_DOT":0.00045272,"MEAN_MOTION_DDOT":0}]
